HST                     
1 20580U 90037B   26162.21026604  .00005021  00000+0  15696-3 0  9999
2 20580  28.4707 121.4212 0001970  81.6673 278.4146 15.30680019787654
POLAR                   
1 23802U 96013A   26162.64541607  .00000130  00000+0  00000+0 0  9996
2 23802  79.8467 227.1170 6465061 209.2712  89.5051  1.29846140144786
SWAS                    
1 25560U 98071A   26162.64855418  .00003222  00000+0  20641-3 0  9995
2 25560  69.8964 241.8017 0008881 265.1025  94.9126 15.09593851496434
CXO                     
1 25867U 99040B   26164.08641897  .00000611  00000+0  00000+0 0  9998
2 25867  56.1211 116.7320 7849026 310.2825   0.0985  0.37806491 17304
XMM-NEWTON              
1 25989U 99066A   26163.36279180  .00000079  00000+0  00000+0 0  9991
2 25989  64.5165 283.0486 4676939  65.0051   0.0920  0.50123487 22986
TERRA                   
1 25994U 99068A   26162.96169045  .00000319  00000+0  73983-4 0  9994
2 25994  97.9458 212.7150 0001181 210.9434 272.5846 14.61098896408845
CLUSTER II-FM7 (SAMBA)  
1 26410U 00041A   26163.67757316  .00005012  00000+0  00000+0 0  9994
2 26410 149.9129  50.0471 9050232 267.1318 359.9673  0.44876884 20290
CLUSTER II-FM8 (TANGO)  
1 26464U 00045B   26161.68499571  .00004607  00000+0  00000+0 0  9991
2 26464 150.1502  50.7513 9053421 267.6711   3.1468  0.44409835 20284
ODIN                    
1 26702U 01007A   26162.63011844  .00161235  00000+0  11182-2 0  9991
2 26702  97.3847 203.2219 0006671 150.0809 210.0838 15.73954922388524
TIMED                   
1 26998U 01055B   26162.65576346  .00001103  00000+0  10375-3 0  9997
2 26998  74.0676 246.1556 0000806 344.6756  15.4403 14.95283372329997
CORIOLIS                
1 27640U 03001A   26162.91229970  .00000090  00000+0  63004-4 0  9994
2 27640  98.7125 169.8776 0013115 224.8257 135.1861 14.19943366213476
SORCE                   
1 27651U 03004A   26162.82639308  .00002531  00000+0  19190-3 0  9997
2 27651  39.9911 292.2630 0017219   9.2457 350.8651 15.03684828271098
MOST                    
1 27843U 03031D   26162.93152783  .00000058  00000+0  46872-4 0  9999
2 27843  98.7044 170.7308 0008674 267.6076  92.4108 14.21321450189963
SCISAT 1                
1 27858U 03036A   26162.48560649  .00000462  00000+0  63745-4 0  9991
2 27858  73.9285 182.6712 0008662 251.9878 108.0354 14.81442151230608
SWIFT                   
1 28485U 04047A   26162.52522243  .00060510  00000+0  51483-3 0  9999
2 28485  20.5545 228.5626 0002047 197.4245 162.6131 15.67804210185970
HINODE (SOLAR-B)        
1 29479U 06041A   26162.93921012  .00000599  00000+0  11135-3 0  9992
2 29479  98.0549 179.1692 0016207 307.8722  52.1017 14.68615861 54100
SHIJIAN-6 02A (SJ-6 02A)
1 29505U 06046A   26162.94630968  .00004952  00000+0  25496-3 0  9997
2 29505  97.6371 203.9729 0004120 136.8317 223.3240 15.16878152 71473
SHIJIAN-6 02B (SJ-6 02B)
1 29506U 06046B   26162.94790487  .00001016  00000+0  83374-4 0  9999
2 29506  97.7166 192.0387 0015053  75.5422 284.7472 15.01362984 69951
FGRST (GLAST)           
1 33053U 08029A   26162.53193185  .00003028  00000+0  10820-3 0  9991
2 33053  25.5814 243.7508 0007603 258.7530 101.2154 15.23922087994977
SDO                     
1 36395U 10005A   26162.29141986 -.00000074  00000+0  00000+0 0  9999
2 36395  34.6389  86.4327 0001607  52.7574 123.3287  1.00270396 60005
CRYOSAT 2               
1 36508U 10013A   26162.91249065  .00000121  00000+0  29302-4 0  9993
2 36508  92.0350 276.0195 0002197  87.3988 272.7470 14.51897379857312
X-SAT                   
1 37389U 11015C   26162.96012383  .00000031  00000+0  30486-4 0  9995
2 37389  98.3505 140.2323 0014295   3.8045 356.3241 14.25204772786939
GCOM-W1 (SHIZUKU)       
1 38337U 12025A   26162.81268427  .00000378  00000+0  93990-4 0  9990
2 38337  98.2022 103.4498 0001836  78.8235 335.7680 14.57119631748255
NUSTAR                  
1 38358U 12031A   26163.00003472  .00005868  00000+0  30960-3 0  9995
2 38358   6.0260  73.0278 0007341  25.7818 251.0385 15.08751072  1300
NEOSSAT                 
1 39089U 13009D   26162.49521747  .00000136  00000+0  61662-4 0  9992
2 39089  98.4175 342.6633 0009791 262.8605  97.1468 14.35824467695927
BRITE-AUSTRIA           
1 39091U 13009F   26162.42702338  .00000141  00000+0  62670-4 0  9991
2 39091  98.3993 342.0054 0008992 255.9460 104.0727 14.36539758696229
IRIS                    
1 39197U 13033A   26162.50822124  .00000912  00000+0  11063-3 0  9995
2 39197  97.9334   1.8031 0023963 340.9576  19.0741 14.85874066699539
HISAKI (SPRINT-A)       
1 39253U 13049A   26162.53127235  .00000129  00000+0  87786-4 0  9995
2 39253  29.7196 248.7689 0136889 331.0087  28.2938 13.55544127630658
CASSIOPE                
1 39265U 13055A   26162.91282772  .00043419 -54648-6  47636-3 0  9998
2 39265  80.9146  73.1230 0294693  80.1366 283.2997 15.24695920666863
STSAT-3                 
1 39422U 13066G   26162.91902593  .00003816  00000+0  28981-3 0  9999
2 39422  97.6212 132.8916 0011097  58.8549 301.3763 15.02727528683410
SWARM B                 
1 39451U 13067A   26162.96190182  .00002974  00000+0  10598-3 0  9999
2 39451  87.7436 343.9050 0003360  88.1727 271.9907 15.28519492682443
